[{"OBJECT_NAME":"ASTROCAST-0404","OBJECT_ID":"2023-001DH","EPOCH":"2026-03-09T19:24:02.920896","MEAN_MOTION":15.26309833,"ECCENTRICITY":0.00068478,"INCLINATION":97.5646,"RA_OF_ASC_NODE":161.5422,"ARG_OF_PERICENTER":1.1317,"MEAN_ANOMALY":358.9936,"EPHEMERIS_TYPE":0,"CLASSIFICATION_TYPE":"U","NORAD_CAT_ID":55112,"ELEMENT_SET_NO":999,"REV_AT_EPOCH":12936,"BSTAR":0.00034435555,"MEAN_MOTION_DOT":8.87e-5,"MEAN_MOTION_DDOT":0},{"OBJECT_NAME":"STARLINK-31074","OBJECT_ID":"2023-200N","EPOCH":"2026-03-09T22:00:01.999584","MEAN_MOTION":15.26757142,"ECCENTRICITY":0.0001232,"INCLINATION":43.0003,"RA_OF_ASC_NODE":167.2687,"ARG_OF_PERICENTER":274.579,"MEAN_ANOMALY":281.1582,"EPHEMERIS_TYPE":0,"CLASSIFICATION_TYPE":"U","NORAD_CAT_ID":58601,"ELEMENT_SET_NO":999,"REV_AT_EPOCH":573,"BSTAR":-0.00056593976,"MEAN_MOTION_DOT":-0.00015416,"MEAN_MOTION_DDOT":0}]
